{"type": "FeatureCollection", "features": [ {"type": "Feature", "properties": {"norad_id": 66638, "name": "STARLINK-35972", "group": "last-30-days", "lat": 36.75504795277835, "lon": -24.12902897723457, "alt_km": 404.28699672872335, "timestamp": "2025-12-12T03:50:51.177727+00:00", "meta": {"OBJECT_NAME": "STARLINK-35972", "OBJECT_ID": "2025-271X", "EPOCH": "2025-12-11T14:00:01.999872", "MEAN_MOTION": 15.54897755, "ECCENTRICITY": 0.00011305, "INCLINATION": 53.1598, "RA_OF_ASC_NODE": 192.7007, "ARG_OF_PERICENTER": 103.0303, "MEAN_ANOMALY": 39.6776, "EPHEMERIS_TYPE": 0, "CLASSIFICATION_TYPE": "U", "NORAD_CAT_ID": 66638, "ELEMENT_SET_NO": 999, "REV_AT_EPOCH": 405, "BSTAR": -0.033240576, "MEAN_MOTION_DOT": -0.02020187, "MEAN_MOTION_DDOT": 0}, "tle": {"line1": "1 66638U 25271X   25345.58335648 -.02020187  00000+0 -33241-1 0  9992", "line2": "2 66638  53.1598 192.7007 0001130 103.0303  39.6776 15.54897755  4056"}}, "geometry": {"type": "Point", "coordinates": [-24.12902897723457, 36.75504795277835]}}, {"type": "Feature", "properties": {"norad_id": 66639, "name": "STARLINK-35908", "group": "last-30-days", "lat": 35.469991888962994, "lon": -22.36975405346119, "alt_km": 404.48212796681673, "timestamp": "2025-12-12T03:50:51.177736+00:00", "meta": {"OBJECT_NAME": "STARLINK-35908", "OBJECT_ID": "2025-271Y", "EPOCH": "2025-12-11T14:00:01.999872", "MEAN_MOTION": 15.54898176, "ECCENTRICITY": 0.00011745, "INCLINATION": 53.1598, "RA_OF_ASC_NODE": 192.6961, "ARG_OF_PERICENTER": 103.3822, "MEAN_ANOMALY": 41.2427, "EPHEMERIS_TYPE": 0, "CLASSIFICATION_TYPE": "U", "NORAD_CAT_ID": 66639, "ELEMENT_SET_NO": 999, "REV_AT_EPOCH": 405, "BSTAR": -0.033269325, "MEAN_MOTION_DOT": -0.02021804, "MEAN_MOTION_DDOT": 0}, "tle": {"line1": "1 66639U 25271Y   25345.58335648 -.02021804  00000+0 -33269-1 0  9990", "line2": "2 66639  53.1598 192.6961 0001174 103.3822  41.2427 15.54898176  4052"}}, "geometry": {"type": "Point", "coordinates": [-22.36975405346119, 35.469991888962994]}}, {"type": "Feature", "properties": {"norad_id": 66640, "name": "STARLINK-35921", "group": "last-30-days", "lat": 34.158803650837434, "lon": -20.663739305253348, "alt_km": 404.7281895713777, "timestamp": "2025-12-12T03:50:51.177748+00:00", "meta": {"OBJECT_NAME": "STARLINK-35921", "OBJECT_ID": "2025-271Z", "EPOCH": "2025-12-11T14:00:01.999872", "MEAN_MOTION": 15.54900516, "ECCENTRICITY": 0.00012082, "INCLINATION": 53.1599, "RA_OF_ASC_NODE": 192.6925, "ARG_OF_PERICENTER": 98.0049, "MEAN_ANOMALY": 48.5358, "EPHEMERIS_TYPE": 0, "CLASSIFICATION_TYPE": "U", "NORAD_CAT_ID": 66640, "ELEMENT_SET_NO": 999, "REV_AT_EPOCH": 405, "BSTAR": -0.033314527, "MEAN_MOTION_DOT": -0.02024437, "MEAN_MOTION_DDOT": 0}, "tle": {"line1": "1 66640U 25271Z   25345.58335648 -.02024437  00000+0 -33315-1 0  9999", "line2": "2 66640  53.1599 192.6925 0001208  98.0049  48.5358 15.54900516  4059"}}, "geometry": {"type": "Point", "coordinates": [-20.663739305253348, 34.158803650837434]}}, {"type": "Feature", "properties": {"norad_id": 66641, "name": "STARLINK-35923", "group": "last-30-days", "lat": 28.70580516793882, "lon": -14.342000031803657, "alt_km": 405.6223278628049, "timestamp": "2025-12-12T03:50:51.177758+00:00", "meta": {"OBJECT_NAME": "STARLINK-35923", "OBJECT_ID": "2025-271AA", "EPOCH": "2025-12-11T14:00:01.999872", "MEAN_MOTION": 15.54896125, "ECCENTRICITY": 0.00011679, "INCLINATION": 53.1597, "RA_OF_ASC_NODE": 192.6756, "ARG_OF_PERICENTER": 108.2858, "MEAN_ANOMALY": 45.9225, "EPHEMERIS_TYPE": 0, "CLASSIFICATION_TYPE": "U", "NORAD_CAT_ID": 66641, "ELEMENT_SET_NO": 999, "REV_AT_EPOCH": 405, "BSTAR": -0.033199282, "MEAN_MOTION_DOT": -0.02017856, "MEAN_MOTION_DDOT": 0}, "tle": {"line1": "1 66641U 25271AA  25345.58335648 -.02017856  00000+0 -33199-1 0  9997", "line2": "2 66641  53.1597 192.6756 0001167 108.2858  45.9225 15.54896125  4050"}}, "geometry": {"type": "Point", "coordinates": [-14.342000031803657, 28.70580516793882]}}, {"type": "Feature", "properties": {"norad_id": 66642, "name": "STARLINK-35926", "group": "last-30-days", "lat": 30.09600835686561, "lon": -15.852332757351274, "alt_km": 405.46618969860174, "timestamp": "2025-12-12T03:50:51.177768+00:00", "meta": {"OBJECT_NAME": "STARLINK-35926", "OBJECT_ID": "2025-271AB", "EPOCH": "2025-12-11T14:00:01.999872", "MEAN_MOTION": 15.54897298, "ECCENTRICITY": 0.00011705, "INCLINATION": 53.1599, "RA_OF_ASC_NODE": 192.6804, "ARG_OF_PERICENTER": 96.8845, "MEAN_ANOMALY": 55.4091, "EPHEMERIS_TYPE": 0, "CLASSIFICATION_TYPE": "U", "NORAD_CAT_ID": 66642, "ELEMENT_SET_NO": 999, "REV_AT_EPOCH": 382, "BSTAR": -0.033244773, "MEAN_MOTION_DOT": -0.02020408, "MEAN_MOTION_DDOT": 0}, "tle": {"line1": "1 66642U 25271AB  25345.58335648 -.02020408  00000+0 -33245-1 0  9997", "line2": "2 66642  53.1599 192.6804 0001170  96.8845  55.4091 15.54897298  3822"}}, "geometry": {"type": "Point", "coordinates": [-15.852332757351274, 30.09600835686561]}}, {"type": "Feature", "properties": {"norad_id": 66643, "name": "STARLINK-35918", "group": "last-30-days", "lat": 32.825870812048784, "lon": -19.012227761510193, "alt_km": 404.96009433380186, "timestamp": "2025-12-12T03:50:51.177778+00:00", "meta": {"OBJECT_NAME": "STARLINK-35918", "OBJECT_ID": "2025-271AC", "EPOCH": "2025-12-11T14:00:01.999872", "MEAN_MOTION": 15.54899151, "ECCENTRICITY": 0.00012143, "INCLINATION": 53.1601, "RA_OF_ASC_NODE": 192.6885, "ARG_OF_PERICENTER": 98.2654, "MEAN_ANOMALY": 50.1943, "EPHEMERIS_TYPE": 0, "CLASSIFICATION_TYPE": "U", "NORAD_CAT_ID": 66643, "ELEMENT_SET_NO": 999, "REV_AT_EPOCH": 405, "BSTAR": -0.033314898, "MEAN_MOTION_DOT": -0.02024369, "MEAN_MOTION_DDOT": 0}, "tle": {"line1": "1 66643U 25271AC  25345.58335648 -.02024369  00000+0 -33315-1 0  9996", "line2": "2 66643  53.1601 192.6885 0001214  98.2654  50.1943 15.54899151  4053"}}, "geometry": {"type": "Point", "coordinates": [-19.012227761510193, 32.825870812048784]}}, {"type": "Feature", "properties": {"norad_id": 66644, "name": "STARLINK-35938", "group": "last-30-days", "lat": 31.469027011561217, "lon": -17.40703630629837, "alt_km": 405.24731076832813, "timestamp": "2025-12-12T03:50:51.177790+00:00", "meta": {"OBJECT_NAME": "STARLINK-35938", "OBJECT_ID": "2025-271AD", "EPOCH": "2025-12-11T14:00:01.999872", "MEAN_MOTION": 15.54899532, "ECCENTRICITY": 0.00012384, "INCLINATION": 53.1598, "RA_OF_ASC_NODE": 192.6849, "ARG_OF_PERICENTER": 90.6673, "MEAN_ANOMALY": 59.7107, "EPHEMERIS_TYPE": 0, "CLASSIFICATION_TYPE": "U", "NORAD_CAT_ID": 66644, "ELEMENT_SET_NO": 999, "REV_AT_EPOCH": 405, "BSTAR": -0.03331954, "MEAN_MOTION_DOT": -0.02024662, "MEAN_MOTION_DDOT": 0}, "tle": {"line1": "1 66644U 25271AD  25345.58335648 -.02024662  00000+0 -33320-1 0  9999", "line2": "2 66644  53.1598 192.6849 0001238  90.6673  59.7107 15.54899532  4052"}}, "geometry": {"type": "Point", "coordinates": [-17.40703630629837, 31.469027011561217]}}, {"type": "Feature", "properties": {"norad_id": 66645, "name": "SHENZHOU-22", "group": "last-30-days", "lat": 32.99437441701969, "lon": 152.89891131281385, "alt_km": 385.6570747659662, "timestamp": "2025-12-12T03:50:51.177800+00:00", "meta": {"OBJECT_NAME": "SHENZHOU-22", "OBJECT_ID": "2025-272A", "EPOCH": "2025-12-11T11:56:35.385792", "MEAN_MOTION": 15.59100786, "ECCENTRICITY": 0.00085964, "INCLINATION": 41.4684, "RA_OF_ASC_NODE": 24.2481, "ARG_OF_PERICENTER": 20.0947, "MEAN_ANOMALY": 340.0228, "EPHEMERIS_TYPE": 0, "CLASSIFICATION_TYPE": "U", "NORAD_CAT_ID": 66645, "ELEMENT_SET_NO": 999, "REV_AT_EPOCH": 26357, "BSTAR": 0.00045432813, "MEAN_MOTION_DOT": 0.00036404, "MEAN_MOTION_DDOT": 0}, "tle": {"line1": "1 66645U 25272A   25345.49763178  .00036404  00000+0  45433-3 0  9997", "line2": "2 66645  41.4684  24.2481 0008596  20.0947 340.0228 15.59100786263571"}}, "geometry": {"type": "Point", "coordinates": [152.89891131281385, 32.99437441701969]}}, {"type": "Feature", "properties": {"norad_id": 66647, "name": "COSMOS 2597 (RODNIK-S 22)", "group": "last-30-days", "lat": 39.17084872568036, "lon": -67.02942534620298, "alt_km": 1497.2253398754465, "timestamp": "2025-12-12T03:50:51.177810+00:00", "meta": {"OBJECT_NAME": "COSMOS 2597 (RODNIK-S 22)", "OBJECT_ID": "2025-273A", "EPOCH": "2025-12-11T14:06:05.355072", "MEAN_MOTION": 12.41951308, "ECCENTRICITY": 0.00079153, "INCLINATION": 82.4989, "RA_OF_ASC_NODE": 287.1644, "ARG_OF_PERICENTER": 291.9215, "MEAN_ANOMALY": 68.1023, "EPHEMERIS_TYPE": 0, "CLASSIFICATION_TYPE": "U", "NORAD_CAT_ID": 66647, "ELEMENT_SET_NO": 999, "REV_AT_EPOCH": 199, "BSTAR": 0.0001610974, "MEAN_MOTION_DOT": 3.2e-07, "MEAN_MOTION_DDOT": 0}, "tle": {"line1": "1 66647U 25273A   25345.58756198  .00000032  00000+0  16110-3 0  9992", "line2": "2 66647  82.4989 287.1644 0007915 291.9215  68.1023 12.41951308  1997"}}, "geometry": {"type": "Point", "coordinates": [-67.02942534620298, 39.17084872568036]}}, {"type": "Feature", "properties": {"norad_id": 66648, "name": "COSMOS 2598 (RODNIK-S 23)", "group": "last-30-days", "lat": 69.52378030658565, "lon": -52.54105658477121, "alt_km": 1493.4542782294893, "timestamp": "2025-12-12T03:50:51.177844+00:00", "meta": {"OBJECT_NAME": "COSMOS 2598 (RODNIK-S 23)", "OBJECT_ID": "2025-273B", "EPOCH": "2025-12-11T04:17:00.448224", "MEAN_MOTION": 12.42861547, "ECCENTRICITY": 0.0007265, "INCLINATION": 82.5027, "RA_OF_ASC_NODE": 287.4211, "ARG_OF_PERICENTER": 254.923, "MEAN_ANOMALY": 105.1046, "EPHEMERIS_TYPE": 0, "CLASSIFICATION_TYPE": "U", "NORAD_CAT_ID": 66648, "ELEMENT_SET_NO": 999, "REV_AT_EPOCH": 194, "BSTAR": -3.5793e-05, "MEAN_MOTION_DOT": 5e-08, "MEAN_MOTION_DDOT": 0}, "tle": {"line1": "1 66648U 25273B   25345.17847741  .00000005  00000+0 -35793-4 0  9993", "line2": "2 66648  82.5027 287.4211 0007265 254.9230 105.1046 12.42861547  1947"}}, "geometry": {"type": "Point", "coordinates": [-52.54105658477121, 69.52378030658565]}}]}